{
  "norad_id": 67190,
  "name": "STARLINK-35888",
  "history": [
    {
      "epoch": "2026-03-28T17:22:32.845728",
      "apogee_km": 483.8147214631872,
      "perigee_km": 481.9512684325591,
      "latitude_deg": 34.211763875434755,
      "longitude_deg": -111.49683807999827,
      "semi_major_axis_km": 6861.019994947873,
      "eccentricity": 0.0001358,
      "inclination_deg": 43.0012,
      "raan_deg": 203.4332,
      "arg_perigee_deg": 291.1276,
      "mean_anomaly_deg": 68.9431,
      "mean_motion_rev_day": 15.27635473
    }
  ]
}